[{"OBJECT_NAME":"ONEWEB-0386","OBJECT_ID":"2021-090AK","EPOCH":"2026-03-09T16:28:32.826720","MEAN_MOTION":13.20770848,"ECCENTRICITY":0.00013609,"INCLINATION":87.9174,"RA_OF_ASC_NODE":294.2921,"ARG_OF_PERICENTER":84.3915,"MEAN_ANOMALY":275.7373,"EPHEMERIS_TYPE":0,"CLASSIFICATION_TYPE":"U","NORAD_CAT_ID":49312,"ELEMENT_SET_NO":999,"REV_AT_EPOCH":21668,"BSTAR":-2.555485e-6,"MEAN_MOTION_DOT":1.2e-7,"MEAN_MOTION_DDOT":0},{"OBJECT_NAME":"CZ-4C R\/B","OBJECT_ID":"2014-063B","EPOCH":"2026-03-09T18:25:12.002592","MEAN_MOTION":13.43030049,"ECCENTRICITY":0.01431041,"INCLINATION":100.2316,"RA_OF_ASC_NODE":353.2741,"ARG_OF_PERICENTER":133.1987,"MEAN_ANOMALY":228.12,"EPHEMERIS_TYPE":0,"CLASSIFICATION_TYPE":"U","NORAD_CAT_ID":40276,"ELEMENT_SET_NO":999,"REV_AT_EPOCH":55816,"BSTAR":8.2923644e-5,"MEAN_MOTION_DOT":5.0e-8,"MEAN_MOTION_DDOT":0}]
